TDRS 3                  
1 19548U 88091B   26057.84610155 -.00000306  00000+0  00000+0 0  9991
2 19548  12.6852 341.7287 0044225 351.9002  78.3575  1.00261626124288
HST                     
1 20580U 90037B   26063.13533951  .00010319  00000+0  34382-3 0  9997
2 20580  28.4703  77.8870 0001725  70.3509 289.7272 15.29378725772469
TDRS 5                  
1 21639U 91054B   26062.73004738  .00000076  00000+0  00000+0 0  9999
2 21639  14.0842 354.5584 0010909 277.5234 344.7078  1.00266106126650
TDRS 6                  
1 22314U 93003B   26062.30205249 -.00000304  00000+0  00000+0 0  9994
2 22314  14.1806 357.8429 0005585 201.1788  24.7869  1.00279152121346
TDRS 7                  
1 23613U 95035B   26062.72117702 -.00000247  00000+0  00000+0 0  9992
2 23613  13.4207 348.9131 0008159  47.3286 113.8671  1.00276681112198
ISS (ZARYA)             
1 25544U 98067A   26063.15679535  .00010207  00000+0  19684-3 0  9998
2 25544  51.6316  99.7104 0008201 155.0339 205.1047 15.48434477555473
TERRA                   
1 25994U 99068A   26063.16861737  .00000655  00000+0  14267-3 0  9995
2 25994  97.9604 116.8140 0002341 164.7813 260.5333 14.61008222394270
TDRS 8                  
1 26388U 00034A   26062.88854576 -.00000203  00000+0  00000+0 0  9995
2 26388  12.5180  32.1998 0006151 307.6527 226.4214  1.00276605 94125
TIMED                   
1 26998U 01055B   26063.15873225  .00001877  00000+0  17523-3 0  9998
2 26998  74.0660  86.4529 0002968 281.7720  78.3131 14.95002481315124
AQUA                    
1 27424U 02022A   26063.14105017  .00001519  00000+0  31298-3 0  9992
2 27424  98.4165  30.4053 0000642  59.4152   2.9589 14.61961369267922
SORCE                   
1 27651U 03004A   26062.65290785  .00004692  00000+0  35208-3 0  9997
2 27651  39.9905 143.5088 0016676   9.7243 350.3871 15.03042744256019
AURA                    
1 28376U 04026A   26063.08163987  .00001477  00000+0  31007-3 0  9999
2 28376  98.3302  18.7485 0001022  78.4005 281.7310 14.61133568150865
SWIFT                   
1 28485U 04047A   26062.91438175  .00052647  00000+0  64171-3 0  9991
2 28485  20.5532 271.1351 0003110 318.2835  41.7372 15.58709156170369
THEMIS A                
1 30580U 07004A   26062.98788683 -.00000163  00000+0 -45938-2 0  9992
2 30580   6.7286 120.3478 8405788 177.2020 197.4061  0.87846778 40356
THEMIS D                
1 30797U 07004D   26062.87088332 -.00000222  00000+0  00000+0 0  9997
2 30797   6.5956  84.7581 8358854 215.5970 147.7594  0.87835945 40158
THEMIS E                
1 30798U 07004E   26063.14049427 -.00000226  00000+0  00000+0 0  9995
2 30798   4.1189  99.9250 8362591 201.4060 247.3906  0.87837644 64999
FGRST (GLAST)           
1 33053U 08029A   26062.72201035  .00005259  00000+0  20161-3 0  9992
2 33053  25.5812 216.4397 0008499 158.2408 201.8492 15.23275126979734
